{
  "type": "FeatureCollection",
  "features": [
    {
      "type": "Feature",
      "properties": {
        "norad_id": 67018,
        "name": "STARLINK-36106",
        "group": "last-30-days",
        "lat": -33.331214846634765,
        "lon": 121.2961137901347,
        "alt_km": 342.34266320206916,
        "timestamp": "2025-12-25T07:00:32.766605+00:00",
        "meta_object_name": "STARLINK-36106",
        "meta_object_id": "2025-293R",
        "meta_epoch": "2025-12-24T22:00:03.000096",
        "meta_mean_motion": 15.78610103,
        "meta_eccentricity": 0.00036321,
        "meta_inclination": 69.9921,
        "meta_ra_of_asc_node": 288.4981,
        "meta_arg_of_pericenter": 261.2684,
        "meta_mean_anomaly": 342.9641,
        "meta_ephemeris_type": 0,
        "meta_classification_type": "U",
        "meta_norad_cat_id": 67018,
        "meta_element_set_no": 999,
        "meta_rev_at_epoch": 218,
        "meta_bstar": -0.010924639,
        "meta_mean_motion_dot": -0.01660579,
        "meta_mean_motion_ddot": 0,
        "tle_line1": "1 67018U 25293R   25358.91670139 -.01660579  00000+0 -10925-1 0  9995",
        "tle_line2": "2 67018  69.9921 288.4981 0003632 261.2684 342.9641 15.78610103  2185"
      },
      "geometry": {
        "type": "Point",
        "coordinates": [
          121.2961137901347,
          -33.331214846634765
        ]
      }
    },
    {
      "type": "Feature",
      "properties": {
        "norad_id": 67019,
        "name": "STARLINK-35688",
        "group": "last-30-days",
        "lat": -35.359691934190614,
        "lon": 122.41327148299708,
        "alt_km": 342.4375172912569,
        "timestamp": "2025-12-25T07:00:32.766616+00:00",
        "meta_object_name": "STARLINK-35688",
        "meta_object_id": "2025-293S",
        "meta_epoch": "2025-12-24T22:00:03.000096",
        "meta_mean_motion": 15.78605041,
        "meta_eccentricity": 0.00036304,
        "meta_inclination": 69.9919,
        "meta_ra_of_asc_node": 288.4952,
        "meta_arg_of_pericenter": 262.0854,
        "meta_mean_anomaly": 344.3865,
        "meta_ephemeris_type": 0,
        "meta_classification_type": "U",
        "meta_norad_cat_id": 67019,
        "meta_element_set_no": 999,
        "meta_rev_at_epoch": 226,
        "meta_bstar": -0.010943042,
        "meta_mean_motion_dot": -0.01662667,
        "meta_mean_motion_ddot": 0,
        "tle_line1": "1 67019U 25293S   25358.91670139 -.01662667  00000+0 -10943-1 0  9996",
        "tle_line2": "2 67019  69.9919 288.4952 0003630 262.0854 344.3865 15.78605041  2265"
      },
      "geometry": {
        "type": "Point",
        "coordinates": [
          122.41327148299708,
          -35.359691934190614
        ]
      }
    },
    {
      "type": "Feature",
      "properties": {
        "norad_id": 67020,
        "name": "STARLINK-36172",
        "group": "last-30-days",
        "lat": -37.74164011753251,
        "lon": 123.80789321802366,
        "alt_km": 342.57945509485853,
        "timestamp": "2025-12-25T07:00:32.766626+00:00",
        "meta_object_name": "STARLINK-36172",
        "meta_object_id": "2025-293T",
        "meta_epoch": "2025-12-24T22:00:03.000096",
        "meta_mean_motion": 15.78571744,
        "meta_eccentricity": 0.00038612,
        "meta_inclination": 69.9919,
        "meta_ra_of_asc_node": 288.4922,
        "meta_arg_of_pericenter": 266.3748,
        "meta_mean_anomaly": 342.7777,
        "meta_ephemeris_type": 0,
        "meta_classification_type": "U",
        "meta_norad_cat_id": 67020,
        "meta_element_set_no": 999,
        "meta_rev_at_epoch": 218,
        "meta_bstar": -0.010913058,
        "meta_mean_motion_dot": -0.01656801,
        "meta_mean_motion_ddot": 0,
        "tle_line1": "1 67020U 25293T   25358.91670139 -.01656801  00000+0 -10913-1 0  9998",
        "tle_line2": "2 67020  69.9919 288.4922 0003861 266.3748 342.7777 15.78571744  2186"
      },
      "geometry": {
        "type": "Point",
        "coordinates": [
          123.80789321802366,
          -37.74164011753251
        ]
      }
    },
    {
      "type": "Feature",
      "properties": {
        "norad_id": 67021,
        "name": "STARLINK-36184",
        "group": "last-30-days",
        "lat": -39.960219952456875,
        "lon": 125.19986046288882,
        "alt_km": 342.6788585382592,
        "timestamp": "2025-12-25T07:00:32.766636+00:00",
        "meta_object_name": "STARLINK-36184",
        "meta_object_id": "2025-293U",
        "meta_epoch": "2025-12-24T22:00:03.000096",
        "meta_mean_motion": 15.78550463,
        "meta_eccentricity": 0.00037352,
        "meta_inclination": 69.992,
        "meta_ra_of_asc_node": 288.4892,
        "meta_arg_of_pericenter": 264.0317,
        "meta_mean_anomaly": 347.6231,
        "meta_ephemeris_type": 0,
        "meta_classification_type": "U",
        "meta_norad_cat_id": 67021,
        "meta_element_set_no": 999,
        "meta_rev_at_epoch": 218,
        "meta_bstar": -0.010966867,
        "meta_mean_motion_dot": -0.01662339,
        "meta_mean_motion_ddot": 0,
        "tle_line1": "1 67021U 25293U   25358.91670139 -.01662339  00000+0 -10967-1 0  9991",
        "tle_line2": "2 67021  69.9920 288.4892 0003735 264.0317 347.6231 15.78550463  2186"
      },
      "geometry": {
        "type": "Point",
        "coordinates": [
          125.19986046288882,
          -39.960219952456875
        ]
      }
    },
    {
      "type": "Feature",
      "properties": {
        "norad_id": 67022,
        "name": "STARLINK-36209",
        "group": "last-30-days",
        "lat": -42.41826843010811,
        "lon": 126.86634857276414,
        "alt_km": 342.9553874886087,
        "timestamp": "2025-12-25T07:00:32.766646+00:00",
        "meta_object_name": "STARLINK-36209",
        "meta_object_id": "2025-293V",
        "meta_epoch": "2025-12-24T22:00:03.000096",
        "meta_mean_motion": 15.78514375,
        "meta_eccentricity": 0.00036296,
        "meta_inclination": 69.9919,
        "meta_ra_of_asc_node": 288.4857,
        "meta_arg_of_pericenter": 267.2899,
        "meta_mean_anomaly": 347.1765,
        "meta_ephemeris_type": 0,
        "meta_classification_type": "U",
        "meta_norad_cat_id": 67022,
        "meta_element_set_no": 999,
        "meta_rev_at_epoch": 218,
        "meta_bstar": -0.010970041,
        "meta_mean_motion_dot": -0.01660284,
        "meta_mean_motion_ddot": 0,
        "tle_line1": "1 67022U 25293V   25358.91670139 -.01660284  00000+0 -10970-1 0  9993",
        "tle_line2": "2 67022  69.9919 288.4857 0003629 267.2899 347.1765 15.78514375  2187"
      },
      "geometry": {
        "type": "Point",
        "coordinates": [
          126.86634857276414,
          -42.41826843010811
        ]
      }
    },
    {
      "type": "Feature",
      "properties": {
        "norad_id": 67023,
        "name": "STARLINK-36191",
        "group": "last-30-days",
        "lat": -44.5267329273504,
        "lon": 128.41864831829352,
        "alt_km": 342.8549689382344,
        "timestamp": "2025-12-25T07:00:32.766659+00:00",
        "meta_object_name": "STARLINK-36191",
        "meta_object_id": "2025-293W",
        "meta_epoch": "2025-12-24T22:00:03.000096",
        "meta_mean_motion": 15.78493351,
        "meta_eccentricity": 0.00037703,
        "meta_inclination": 69.9918,
        "meta_ra_of_asc_node": 288.4824,
        "meta_arg_of_pericenter": 263.6555,
        "meta_mean_anomaly": 353.2311,
        "meta_ephemeris_type": 0,
        "meta_classification_type": "U",
        "meta_norad_cat_id": 67023,
        "meta_element_set_no": 999,
        "meta_rev_at_epoch": 207,
        "meta_bstar": -0.01096932,
        "meta_mean_motion_dot": -0.0165897,
        "meta_mean_motion_ddot": 0,
        "tle_line1": "1 67023U 25293W   25358.91670139 -.01658970  00000+0 -10969-1 0  9991",
        "tle_line2": "2 67023  69.9918 288.4824 0003770 263.6555 353.2311 15.78493351  2070"
      },
      "geometry": {
        "type": "Point",
        "coordinates": [
          128.41864831829352,
          -44.5267329273504
        ]
      }
    },
    {
      "type": "Feature",
      "properties": {
        "norad_id": 67024,
        "name": "STARLINK-36192",
        "group": "last-30-days",
        "lat": -46.80310381497427,
        "lon": 130.24759812018925,
        "alt_km": 342.977466309967,
        "timestamp": "2025-12-25T07:00:32.766671+00:00",
        "meta_object_name": "STARLINK-36192",
        "meta_object_id": "2025-293X",
        "meta_epoch": "2025-12-24T22:00:03.000096",
        "meta_mean_motion": 15.78467205,
        "meta_eccentricity": 0.00037648,
        "meta_inclination": 69.992,
        "meta_ra_of_asc_node": 288.4797,
        "meta_arg_of_pericenter": 264.4578,
        "meta_mean_anomaly": 355.0803,
        "meta_ephemeris_type": 0,
        "meta_classification_type": "U",
        "meta_norad_cat_id": 67024,
        "meta_element_set_no": 999,
        "meta_rev_at_epoch": 218,
        "meta_bstar": -0.011000748,
        "meta_mean_motion_dot": -0.01661369,
        "meta_mean_motion_ddot": 0,
        "tle_line1": "1 67024U 25293X   25358.91670139 -.01661369  00000+0 -11001-1 0  9996",
        "tle_line2": "2 67024  69.9920 288.4797 0003764 264.4578 355.0803 15.78467205  2187"
      },
      "geometry": {
        "type": "Point",
        "coordinates": [
          130.24759812018925,
          -46.80310381497427
        ]
      }
    }
  ]
}